1 37673U 11024A   13318.58997823  .00000720  00000-0  12155-3 0  9997
2 37673 098.0122 323.8810 0001303 104.7562 043.5380 14.72344506130651
